CODE_POSTAL,VILLE,PAYS,LAT,LON
, RK PURAM  NEW DELHI,INDE,28.5660075,77.1767435
,AACHEN,ALLEMAGNE,50.7753455,6.0838868
,ABIDJAN,COTE D'IVOIRE,5.3599517,-4.0082563
64360,ABOS,FRANCE,43.3583,-0.5634
78260,ACHÈRES,FRANCE,48.960796,2.0700219
78260,ACHERES,FRANCE,48.960796,2.0700219
40801,AIRE SUR L'ADOUR,FRANCE,43.700062,-0.262294
13100,AIX EN PROVENCE,FRANCE,43.529742,5.447427
13290,AIX EN PROVENCE,FRANCE,43.529742,5.447427
13791,AIX EN PROVENCE CEDEX 3,FRANCE,43.4850622,5.3804073
13856,AIX-EN PROVENCE CEDEX 3,FRANCE,43.4872511,5.3581211
13090,AIX-EN-PROVENCE,FRANCE,43.529742,5.447427
13594,AIX-EN-PROVENCE CEDEX 03,FRANCE,43.4860038,5.3813494
20000,AJACCIO,FRANCE,41.919229,8.738635
20167,ALATA,FRANCE,41.975932,8.742111
30100,ALES,FRANCE,44.127204,4.083352
,ALMATY,KAZAKHSTAN,43.2220146,76.8512485
33440,AMBARES,FRANCE,44.926494,-0.490401
60110,AMBLAINVILLE,FRANCE,49.205551,2.119694
80000,AMIENS,FRANCE,49.894067,2.295753
80080,AMIENS,FRANCE,49.894067,2.295753
44150,ANCENIS,FRANCE,47.365464,-1.177491
3120,ANDELAROCHE,FRANCE,46.256475,3.748098
60570,ANDEVILLE,FRANCE,49.258215,2.168255
95580,ANDILLY,FRANCE,49.008628,2.303938
67140,ANDLAU,FRANCE,48.386157,7.417463
78570,ANDRÉSY,FRANCE,48.979048,2.051033
64600,ANGLET,FRANCE,43.481402,-1.514699
17690,ANGOULINS,FRANCE,46.1038659,-1.110261
74940,ANNECY LE VIEUX,FRANCE,45.9192139,6.1419499
,ANTANANARIVO,MADAGASCAR,-18.8791902,47.5079055
,ANTANANARIVO 101,MADAGASCAR,-18.8791902,47.5079055
92160,ANTONY,FRANCE,48.759255,2.302553
,APRILIA,ITALY,41.5944018,12.6560314
33120,ARCACHON,FRANCE,44.652297,-1.1785016
94110,ARCUEIL,FRANCE,48.80486,2.334955
36120,ARDENTES,FRANCE,46.742023,1.830933
95100,ARGENTEUIL,FRANCE,48.9472096,2.2466847
,ARIANA,TUNISIE,36.865726,10.163471
13646,ARLES CEDEX,FRANCE,43.676647,4.6277769
95400,ARNOUVILLE,FRANCE,48.980312,2.423662
95810,ARRONVILLE,FRANCE,49.182249,2.114574
64420,ARTIGUELOUTAN,FRANCE,43.271558,-0.244483
33370,ARTIGUES PRÈS BORDEAUX,FRANCE,44.8635218,-0.4927134
33370,ARTIGUES PRES BORDEAUX,FRANCE,44.8635218,-0.4927134
64260,ARUDY,FRANCE,43.105543,-0.428476
92600,ASNIÈRES SUR SEINE,FRANCE,48.914155,2.285369
92600,ASNIERES SUR SEINE,FRANCE,48.914155,2.285369
,ASTRAKHAN,RUSSIE,46.3588045,48.0599345
78410,AUBERGENVILLE,FRANCE,48.9591319,1.855891
93300,AUBERVILLIERS,FRANCE,48.912259,2.384049
93303,AUBERVILLIERS CEDEX,FRANCE,48.912259,2.384049
64170,AUDÉJOS,FRANCE,43.432144,-0.608936
95430,AUVERS SUR OISE,FRANCE,49.070852,2.17081
31320,AUZEVILLE-TOLOSANE,FRANCE,43.529195,1.483651
31650,AUZIELLE,FRANCE,43.541834,1.56617
95450,AVERNES,FRANCE,49.087046,1.871917
84000,AVIGNON,FRANCE,43.949317,4.805528
84911,AVIGNON CEDEX 09,FRANCE,43.949317,4.805528
60300,AVILLY SAINT LEONARD,FRANCE,49.193741,2.536738
33640,AYGUEMORTE LES GRAVES,FRANCE,44.710066,-0.479515
28410,BÛ,FRANCE,48.800542,1.501719
80480,BACOUËL/SELLE,FRANCE,49.831492,2.223248
,BAD HOMBURG,ALLEMAGNE,50.2268308,8.6181618
92220,BAGNEUX,FRANCE,48.796696,2.31002
34670,BAILLARGUES,FRANCE,43.660593,4.013409
95560,BAILLET-EN-FRANCE,FRANCE,49.058833,2.303016
60190,BAILLEUL LE SOC,FRANCE,49.416587,2.579158
31130,BALMA,FRANCE,43.606098,1.500032
,BAMAKO,MALI,12.6392316,-8.0028892
,BANGKOK,THAILANDE,13.7563309,100.5017651
95420,BANTHELU,FRANCE,49.127131,1.815097
5200,BARATIER,FRANCE,44.5387879,6.495439
77630,BARBIZON,FRANCE,48.447193,2.603497
,BARCELONA,ESPANA,41.3850639,2.1734035
97100,BASSE-TERRE,FRANCE,16.0144526,-61.7064109
54980,BATILLY,FRANCE,49.17102,5.969358
64800,BAUDREIX,FRANCE,43.20577,-0.2589659
25550,BAVANS,FRANCE,47.481865,6.729976
64100,BAYONNE,FRANCE,43.492949,-1.474841
78580,BAZEMONT,FRANCE,48.927866,1.86644
95250,BEAUCHAMP,FRANCE,49.015695,2.192255
95250,BEAUCHAMPS,FRANCE,50.017005,1.509317
72110,BEAUFAY,FRANCE,48.146652,0.363191
95260,BEAUMONT SUR OISE,FRANCE,49.141551,2.284601
60000,BEAUVAIS,FRANCE,49.4295387,2.0807123
33130,BEGLES,FRANCE,44.812023,-0.543784
,BEIJING,CHINA,39.9041999,116.4073963
90000,BELFORT,FRANCE,47.639559,6.862434
,BERLIN,ALLEMAGNE,52.5200066,13.404954
64160,BERNADETS,FRANCE,43.374906,-0.280987
,BERTRANGE,LUXEMBOURG,49.6082663,6.0510573
25000,BESANCON,FRANCE,47.237829,6.0240539
25084,BESANCON CEDEX 9,FRANCE,47.2647718,6.0503095
95550,BESSANCOURT,FRANCE,49.038027,2.216363
95870,BEZONS,FRANCE,48.925687,2.215847
95873,BEZONS,FRANCE,48.925687,2.215847
95877,BEZONS CEDEX,FRANCE,48.925687,2.215847
64520,BIDACHE,FRANCE,43.483403,-1.141554
64210,BIDART,FRANCE,43.439236,-1.590062
64140,BILLÈRE,FRANCE,43.302207,-0.39742
64140,BILLERE,FRANCE,43.302207,-0.39742
64300,BIRON,FRANCE,44.631318,0.870889
64320,BIZANOS,FRANCE,43.288931,-0.355226
31700,BLAGNAC,FRANCE,43.635087,1.39703
31703,BLAGNAC,FRANCE,43.635087,1.39703
31702,BLAGNAC CEDEX,FRANCE,43.635087,1.39703
,BNE BRAK,ISRAEL,32.084932,34.835226
93000,BOBIGNY,FRANCE,48.908612,2.439712
64510,BOEIL-BEZING,FRANCE,43.221005,-0.265051
92270,BOIS COLOMBES,FRANCE,48.917402,2.269675
92273,BOIS COLOMBES CEDEX,FRANCE,48.917402,2.269675
92275,BOIS COLOMBES CEDEX,FRANCE,48.917402,2.269675
92270,BOIS-COLOMBES,FRANCE,48.917402,2.269675
92273,BOIS-COLOMBES,FRANCE,48.917402,2.269675
30140,BOISSET ET GAUJAC,FRANCE,44.0491322,4.0235718
94470,BOISSY ST LEGER,FRANCE,48.7544029,2.5060809
93140,BONDY,FRANCE,48.906308,2.478265
93149,BONDY,FRANCE,48.906008,2.481875
94385,BONNEUIL SUR MARNE CEDEX,FRANCE,48.774755,2.487765
33000,BORDEAUX,FRANCE,44.837789,-0.57918
33067,BORDEAUX,FRANCE,44.837789,-0.57918
33074,BORDEAUX,FRANCE,44.837789,-0.57918
33100,BORDEAUX,FRANCE,44.837789,-0.57918
33800,BORDEAUX,FRANCE,44.837789,-0.57918
33076,BORDEAUX CEDEX,FRANCE,44.837789,-0.57918
33080,BORDEAUX CEDEX,FRANCE,44.837789,-0.57918
64510,BORDES,FRANCE,43.234419,-0.281299
64511,BORDES,FRANCE,43.234419,-0.281299
64511,BORDES CEDEX,FRANCE,43.234419,-0.281299
13320,BOUC BEL AIR,FRANCE,43.451152,5.413875
95570,BOUFFEMONT,FRANCE,49.043675,2.307852
24750,BOULAZAC,FRANCE,45.180548,0.768949
31620,BOULOC,FRANCE,43.781493,1.405246
92100,BOULOGNE,FRANCE,50.725231,1.613334
92100,BOULOGNE BILLANCOURT,FRANCE,48.8396952,2.2399123
92650,BOULOGNE BILLANCOURT,FRANCE,48.8396952,2.2399123
92514,BOULOGNE BILLANCOURT CEDEX,FRANCE,48.8396952,2.2399123
92650,BOULOGNE BILLANCOURT CEDEX,FRANCE,48.8396952,2.2399123
92100,BOULOGNE-BILLANCOURT,FRANCE,48.8396952,2.2399123
92513,BOULOGNE-BILLANCOURT CEDEX,FRANCE,48.8396952,2.2399123
33710,BOURG,FRANCE,45.0391679,-0.55961
18000,BOURGES,FRANCE,47.081012,2.398782
92340,BOURG-LA-REINE,FRANCE,48.780454,2.316374
62134,BOYAVAL,FRANCE,50.4744219,2.303175
91229,BRÉTIGNY SUR ORGE,FRANCE,48.611486,2.30604
47310,BRAX,FRANCE,43.616995,1.239953
29200,BREST,FRANCE,48.390394,-4.486076
29238,BREST CEDEX 3,FRANCE,48.390076,-4.501529
89210,BRIENON,FRANCE,47.991832,3.617134
57535,BRONVAUX,FRANCE,49.1965379,6.086189
31150,BRUGUIERES,FRANCE,43.727028,1.411991
,BRUXELLES,BELGIQUE,50.8503396,4.3517103
94360,BRY SUR MARNE,FRANCE,48.834913,2.5236489
28410,BU,FRANCE,48.799737,1.50144
78530,BUC,FRANCE,48.771808,2.123618
,BUENO AIRES,ARGENTINA,-34.6036844,-58.3815591
91440,BURES SUR YVETTE,FRANCE,48.696893,2.163977
64160,BUROS,FRANCE,43.3517409,-0.308749
17100,BUSSAC-SUR-CHARENTE,FRANCE,45.789718,-0.635927
77600,BUSSY SAINT GEORGES,FRANCE,48.842205,2.69802
77600,BUSSY-SAINT-GEORGES,FRANCE,48.842205,2.69802
94230,CACHAN,FRANCE,48.791855,2.331433
14000,CAEN,FRANCE,49.182863,-0.370679
6800,CAGNES SUR MER,FRANCE,43.663739,7.14882
69270,CAILLOUX SUR FONTAINE,FRANCE,45.8523319,4.87201
40090,CAMPAGNE,FRANCE,43.96179,-0.544745
35260,CANCALE,FRANCE,48.67707,-1.852279
,CAPEELEN,LUXEMBOURG,49.646245,5.9907576
11000,CARCASSONNE,FRANCE,43.2132151,2.3517703
13470,CARNOUX,FRANCE,43.258996,5.565438
44470,CARQUEFOU,FRANCE,47.296241,-1.486812
78420,CARRIÈRES SUR SEINE,FRANCE,48.911292,2.178685
78955,CARRIÈRES-SOUS-POISSY,FRANCE,48.945484,2.037356
78955,CARRIERES SOUS POISSY,FRANCE,48.945484,2.037356
78420,CARRIERE-SUR-SEINE,FRANCE,48.911292,2.178685
6516,CARROS,FRANCE,43.792389,7.18712
24200,CARSAC AILLAC,FRANCE,44.841033,1.276566
,CASABANCA,MAROC,33.5731104,-7.5898434
,CASABLANCA,MAROC,33.5731104,-7.5898434
34170,CASTELNAU LE LEZ,FRANCE,43.6329827,3.8975051
34173,CASTELNAU-LE-LEZ,FRANCE,43.6329827,3.8975051
81100,CASTRES,FRANCE,43.606214,2.241295
81103,CASTRES,FRANCE,43.606214,2.241295
84300,CAVAILLON,FRANCE,43.8366045,5.0407814
82140,CAZALS,FRANCE,44.643517,1.226715
,CDAD. AUTONOMA DE BUENOS AIRES,ARGENTINE,-34.6036844,-58.3815591
,CEARA,BRESIL,-5.4983977,-39.3206241
,CEBU CITY,PHILIPPINES,10.3156992,123.8854366
33150,CENON,FRANCE,44.857738,-0.530906
95000,CERGY,FRANCE,49.035617,2.060325
95007,CERGY,FRANCE,49.035617,2.060325
95011,CERGY,FRANCE,49.035617,2.060325
95014,CERGY,FRANCE,49.035617,2.060325
95017,CERGY,FRANCE,49.035617,2.060325
95800,CERGY,FRANCE,49.035617,2.060325
95011,CERGY CEDEX,FRANCE,49.035617,2.060325
95014,CERGY CEDEX,FRANCE,49.035617,2.060325
95521,CERGY CEDEX,FRANCE,49.035617,2.060325
95800,CERGY LE HAUT,FRANCE,49.0483125,2.0114027
95000,CERGY PONTOISE,FRANCE,49.050966,2.100645
95014,CERGY PONTOISE,FRANCE,49.050966,2.100645
95100,CERGY PONTOISE,FRANCE,49.050966,2.100645
95807,CERGY PONTOISE,FRANCE,49.050966,2.100645
95005,CERGY PONTOISE CEDEX,FRANCE,49.050966,2.100645
95042,CERGY PONTOISE CEDEX,FRANCE,49.050966,2.100645
95523,CERGY PONTOISE CEDEX,FRANCE,49.050966,2.100645
95802,CERGY PONTOISE CEDEX,FRANCE,49.050966,2.100645
95862,CERGY PONTOISE CEDEX,FRANCE,49.050966,2.100645
95866,CERGY PONTOISE CEDEX,FRANCE,49.050966,2.100645
95800,CERGY SAINT CHRISTOPHE,FRANCE,49.035617,2.060325
95000,CERGY ST CHRISTOPHE,FRANCE,49.0496443,2.0342608
95800,CERGY ST CHRISTOPHE,FRANCE,49.0496443,2.0342608
95000,CERGY-PONTOISE,FRANCE,49.050966,2.100645
95001,CERGY-PONTOISE,FRANCE,49.050966,2.100645
95014,CERGY-PONTOISE,FRANCE,49.050966,2.100645
95004,CERGY-PONTOISE CEDEX,FRANCE,49.050966,2.100645
95015,CERGY-PONTOISE CEDEX,FRANCE,49.050966,2.100645
95000,CERRGY,FRANCE,49.035617,2.060325
92320,CHÂTILLON,FRANCE,48.804689,2.289387
60230,CHAMBLY,FRANCE,49.165835,2.246075
78240,CHAMBOURG,FRANCE,47.181845,0.967883
94500,CHAMPIGNY SUR MARNE,FRANCE,48.817049,2.515556
77420,CHAMPS SUR MARNE,FRANCE,48.852775,2.602651
78570,CHANTELOUP-LES-VIGNES,FRANCE,48.978825,2.030051
94220,CHARENTON LE PONT,FRANCE,48.8193107,2.4162805
,CHARLEROI,BELGIQUE,50.4108095,4.444643
28008,CHARTRES CEDEX,FRANCE,48.443854,1.489012
35131,CHARTRES DE BRETAGNE,FRANCE,48.040898,-1.707289
72500,CHATEAU DU LOIR,FRANCE,47.692668,0.418068
17340,CHATELAILLON-PLAGE,FRANCE,46.069676,-1.088543
92290,CHATENAY-MALABRY,FRANCE,48.771896,2.270748
92320,CHATILLON,FRANCE,48.804689,2.289387
78400,CHATOU,FRANCE,48.896391,2.160098
78401,CHATOU,FRANCE,48.896391,2.160098
95560,CHAUVRY,FRANCE,49.055486,2.270137
92370,CHAVILLE,FRANCE,48.808026,2.192418
,CHENE-BOURGERIES,SUISSE,46.1983939,6.1851258
,CHENGDU,CHINE,30.572815,104.066801
,CHENGDU,CHINA,30.572815,104.066801
94330,CHENNEVIERES SUR MARNE,FRANCE,48.796124,2.53507
21800,CHEVIGNY SAINT SAUVEUR,FRANCE,47.302245,5.139998
78460,CHEVREUSE,FRANCE,48.707733,2.0406559
77173,CHEVRY COSSIGNY,FRANCE,48.725095,2.659046
91380,CHILLY MAZARIN,FRANCE,48.705134,2.310271
49300,CHOLET,FRANCE,47.059407,-0.879787
38121,CHONAS L AMBALLAN,FRANCE,45.460615,4.811974
64500,CIBOURE,FRANCE,43.387537,-1.675432
92140,CLAMART,FRANCE,48.799815,2.257289
92141,CLAMART,FRANCE,48.799815,2.257289
92147,CLAMART CEDEX,FRANCE,48.799815,2.257289
63000,CLERMONT FERRAND,FRANCE,45.777222,3.087025
92110,CLICHY,FRANCE,48.904526,2.304768
92700,COLOMBES,FRANCE,48.9220615,2.2533313
92702,COLOMBES CEDEX,FRANCE,48.9220615,2.2533313
92707,COLOMBES CEDEX,FRANCE,48.9220615,2.2533313
92715,COLOMBES CEDEX,FRANCE,48.9220615,2.2533313
31772,COLOMIERS CEDEX,FRANCE,43.612189,1.336579
,COLUMBUS  MS,USA,33.4956744,-88.4272627
77380,COMBS LA VILLE,FRANCE,48.66602,2.55769
29900,CONCARNEAU,FRANCE,47.872834,-3.920734
87920,CONDAT SUR VIENNE,FRANCE,45.796888,1.236574
78600,CONFLANS,FRANCE,49.000275,2.09178
78700,CONFLANS SAINT HONORINE,FRANCE,49.000275,2.09178
78700,CONFLANS SAINTE HONORINE,FRANCE,49.000275,2.09178
78700,CONFLANS STE HONORINE,FRANCE,49.000275,2.09178
78700,CONFLANS-SAINTE-HONORINE,FRANCE,49.000275,2.09178
,CORK,IRELAND,51.8985143,-8.4756035
95240,CORMEILLES EN PARISIS,FRANCE,48.973526,2.201292
95830,CORMEILLES EN VEXIN,FRANCE,49.116418,2.021989
95240,CORMEILLES-EN-PARISIS,FRANCE,48.973526,2.201292
79160,COULONGES-SUR-L'AUTIZE,FRANCE,46.481744,-0.59951
92095,COURBEVOIE,FRANCE,48.900552,2.25929
92400,COURBEVOIE,FRANCE,48.900552,2.25929
92400,COURBEVOIE - LE DEFENSE 5,FRANCE,48.8897359,2.2418428
92411,COURBEVOIE CEDEX,FRANCE,48.900552,2.25929
91080,COURCOURONNES,FRANCE,48.617871,2.407091
95800,COURDIMANCHE,FRANCE,49.034807,2.001199
77181,COURTRY,FRANCE,48.918273,2.603204
74960,CRAN GEVRIER,FRANCE,45.907737,6.106677
12100,CREISSELS,FRANCE,44.08541,3.059877
94000,CRETEIL,FRANCE,48.790367,2.455572
94015,CRETEIL CEDEX,FRANCE,48.790367,2.455572
16300,CRITEUIL-LA-MAGDELEINE,FRANCE,45.53823,-0.215514
78290,CROISSY SUR SEINE,FRANCE,48.878426,2.142746
77183,CROISSY-BEAUBOURG,FRANCE,48.8279179,2.659396
38920,CROLLES,FRANCE,45.284906,5.882983
59553,CUINCY,FRANCE,50.382014,3.044337
,DAKAR,SENEGAL,14.716677,-17.4676861
40100,DAX,FRANCE,43.708608,-1.051945
,DEKWANEH,LIBAN,33.8793878,35.543721
95170,DEUIL LA BARRE,FRANCE,48.975751,2.3272339
21000,DIJON,FRANCE,47.322047,5.04148
95330,DOMONT,FRANCE,49.030343,2.326213
95331,DOMONT CEDEX,FRANCE,49.030343,2.326213
59500,DOUAI,FRANCE,50.367874,3.080602
,DOUALA,CAMEROUN,4.0510564,9.7678687
91410,DOURDAN,FRANCE,48.529171,2.0152549
83300,DRAGUIGNAN,FRANCE,43.5377269,6.464993
93700,DRANCY,FRANCE,48.924298,2.445676
,DRESDEN,ALLEMAGNE,51.0504088,13.7372621
28100,DREUX,FRANCE,48.736134,1.370889
,DUBLIN,IRLANDE,53.3498053,-6.2603097
,DUBLIN,IRELAND,53.3498053,-6.2603097
,DUBLIN,IRELANDE,53.3498053,-6.2603097
,DUBLIN 1,IRELAND,53.3542318,-6.2569876
63830,DURTOL,FRANCE,45.794982,3.0553309
,DUSSELDORF,ALLEMAGNE,51.2277411,6.7734556
95600,EAUBONNE,FRANCE,48.992128,2.2779189
67201,ECKBOLSHEIM,FRANCE,48.57924,7.688243
78920,ECQUEVILLY,FRANCE,48.9492059,1.924235
,EDINBURGH,ROYAUME-UNI,55.953252,-3.188267
,EISTI Cergy,FRANCE,49.0347019,2.0699146
,EISTI Pau,FRANCE,43.3193493,-0.3605491
,EL JADIDA,MAROC,33.2316326,-8.5007116
78990,ELANCOURT,FRANCE,48.782907,1.960077
5200,EMBRUN,FRANCE,44.564377,6.494586
95880,ENGHIEN LES BAINS,FRANCE,48.9708759,2.3034849
95300,ENNERY,FRANCE,49.226609,6.224583
,EPALINGES,SUISSE,46.5488573,6.674199
88001,EPINAL CEDEX,FRANCE,48.172402,6.449403
93800,EPINAY SUR SEINE,FRANCE,48.955735,2.314739
50120,EQUEURDREVILLE-HAINNEVILLE,FRANCE,49.648868,-1.653674
95610,ERAGNY,FRANCE,49.02458,2.094985
95610,ERAGNY SUR OISE,FRANCE,49.02458,2.094985
60530,ERCUIS,FRANCE,48.8680162,2.3213074
95120,ERMONT,FRANCE,48.989404,2.258202
31750,ESCALQUENS,FRANCE,43.518518,1.559973
59278,ESCAUTPONT,FRANCE,50.424383,3.561396
,ESCH-SUR-ALZETTE,LUXEMBOURG,49.5008805,5.9860925
91152,ETAMPES,FRANCE,48.434416,2.16142
91034,EVRY,FRANCE,48.629828,2.441782
95460,EZANVILLE,FRANCE,49.038069,2.360491
59247,FÉCHAIN,FRANCE,50.26917,3.213457
,FÉS,MAROC,34.0181246,-5.0078451
37600,FERRIERE SUR BEAULIEU,FRANCE,47.138725,1.03656
,FES,MAROC,34.0181246,-5.0078451
46090,FLAUJAC POUJOLS,FRANCE,44.406355,1.499606
21121,FONTAINE LES DIJON,FRANCE,47.34985,5.022149
69270,FONTAINES SAINT MARTIN,FRANCE,45.844619,4.852347
92260,FONTENAY AUX ROSES,FRANCE,48.789776,2.287181
78330,FONTENAY LE FLEURY,FRANCE,48.810638,2.046222
78440,FONTENAY SAINT PÈRE,FRANCE,49.027329,1.757549
94120,FONTENAY SOUS BOIS,FRANCE,48.851542,2.475907
97261,FORT DE FRANCE,FRANCE,14.6051709,-61.0716727
97200,FORT-DE-FRANCE,FRANCE,14.6160647,-61.0587804
47510,FOULAYRONNES,FRANCE,44.2556467,0.6298922
31450,FOURQUEVAUX,FRANCE,43.504762,1.617736
83600,FRÉJUS,FRANCE,43.433152,6.737034
95740,FRÉPILLON,FRANCE,49.051616,2.208852
95130,FRANCONVILLE,FRANCE,48.986011,2.229632
,FRASCAT,ITALY,41.8085208,12.6761041
94260,FRESNES,FRANCE,48.757205,2.326243
80535,FRIVILLE CEDEX,FRANCE,50.081325,1.538648
31270,FROUZINS,FRANCE,43.514707,1.321622
12630,GAGES-MONTROZIER,FRANCE,44.406058,2.74682
,GAN SU LANZHOU,CHINE,36.061089,103.834303
,GANSHOREN,BELGIQUE,50.8729866,4.3093326
92380,GARCHES,FRANCE,48.846066,2.188703
78400,GARGENVILLE,FRANCE,48.991435,1.809326
78440,GARGENVILLE,FRANCE,48.991435,1.809326
64110,GELOS,FRANCE,43.285713,-0.372236
13420,GEMENOS,FRANCE,43.295388,5.628112
,GENEVE,SUISSE,46.2043907,6.1431577
,GENEVE 23,SUISSE,46.2010207,6.1407942
,GENEVE 3,SUISSE,46.196877,6.142828
92230,GENNEVILLIERS,FRANCE,48.925525,2.293275
94250,GENTILLY,FRANCE,48.8138999,2.344688
91191,GIF SUR YVETTE,FRANCE,48.701844,2.134078
27140,GISORS,FRANCE,49.279774,1.776579
28160,GOHORY,FRANCE,48.167166,1.228645
95500,GONESSE,FRANCE,48.9864632,2.4497721
22290,GOUDELIN,FRANCE,48.60301,-3.017289
93460,GOURNAY-SUR-MARNE,FRANCE,48.862978,2.575786
34790,GRABELS,FRANCE,43.647718,3.797514
33170,GRADIGNAN,FRANCE,44.774267,-0.618945
33176,GRADIGNAN CEDEX,FRANCE,44.774267,-0.618945
,GRASMERE  AMBLESIDE  CUMBRIA,ENGLAND,54.459734,-3.0243919
6130,GRASSE,FRANCE,43.660153,6.926492
40270,GRENADE SUR L ADOUR,FRANCE,43.773106,-0.431053
38000,GRENOBLE,FRANCE,45.188529,5.724524
38100,GRENOBLE,FRANCE,45.188529,5.724524
,GREVENKNAPP,LUXEMBOURG,49.76117,6.03393
78490,GROSROUVRE,FRANCE,48.7822249,1.760775
,GUIMARAES,PORTUGAL,41.44253,-8.2917857
33470,GUJAN MESTRAS,FRANCE,44.635731,-1.071189
,GUTERSLOH,ALLEMAGNE,51.9032375,8.3857535
78061,GUYANCOURT,FRANCE,48.762895,2.075323
78280,GUYANCOURT,FRANCE,48.762895,2.075323
78286,GUYANCOURT CEDEX,FRANCE,48.762895,2.075323
,HANGZHOU,CHINE,30.274084,120.15507
,HANGZHOU,CHINA,30.274084,120.15507
,HANOI,VIETNAM,21.0277644,105.8341598
95640,HARAVILLIERS,FRANCE,49.17334,2.055066
,HÖSBACH,DEUTSCHLAND,50.0029373,9.2009528
40280,HAUT-MAUCO,FRANCE,43.825243,-0.553888
,HAYES,UK,51.516758,-0.436786
95690,HEDOUVILLE,FRANCE,49.154803,2.169909
54180,HEILLECOURT,FRANCE,48.65233,6.197997
64700,HENDAYE,FRANCE,43.359399,-1.766148
95220,HERBLAY,FRANCE,48.990006,2.165493
64160,HIGUÈRES SOUYE,FRANCE,43.378126,-0.2597729
,HO CHI MINH CITY,VIETNAM,10.8230989,106.6296638
,HO CHI MINH CITY,VIET NAM,10.8230989,106.6296638
60430,HODENC-L'EVEQUE,FRANCE,49.33738,2.150156
27400,HONDOUVILLE,FRANCE,49.140068,1.119327
,HONG KONG,CHINE,22.3193039,114.1693611
,HONG KONG,CHINA,22.3193039,114.1693611
54180,HOUDEMONT,FRANCE,48.647188,6.176482
78800,HOUILLES,FRANCE,48.926916,2.18888
,HSINCHU,TAIWAN,24.8138287,120.9674798
,HSINCHU  TAIWAN,REPUBLIC OF CHINA,24.8138287,120.9674798
45130,HUISSEAU SUR MAUVES,FRANCE,47.893201,1.702582
,HYDERABAD,INDIA,17.385044,78.486671
,IBIZA,ESPAGNE,39.0200099,1.4821482
64320,IDRON,FRANCE,43.289167,-0.311895
67400,ILLKIRCH GRAFFENSTADEN,FRANCE,48.52854,7.711011
,IMMENSTAAD,ALLEMAGNE,47.6655273,9.3641307
,INDORE,INDIA,22.7195687,75.8577258
,IOANNINA,GRECE,39.6650288,20.8537466
,IRWINDALE,UNITED STATES,34.1069527,-117.9353413
92130,ISSY LES MOULINEAUX,FRANCE,48.8245306,2.2743419
92136,ISSY LES MOULINEAUX,FRANCE,48.8245306,2.2743419
92445,ISSY LES MOULINEAUX,FRANCE,48.8245306,2.2743419
92782,ISSY LES MOULINEAUX,FRANCE,48.8245306,2.2743419
92136,ISSY LES MOULINEAUX CEDEX,FRANCE,48.8245306,2.2743419
92444,ISSY LES MOULINEAUX CEDEX,FRANCE,48.8245306,2.2743419
92863,ISSY LES MOULINEAUX CEDEX 9,FRANCE,48.8237852,2.2575807
92130,ISSY-LES-MOULINEAUX,FRANCE,48.8245306,2.2743419
,ISTANBUL,TURKEY,41.0082376,28.9783589
94200,IVRY SUR SEINE,FRANCE,48.813055,2.38822
94200,IVRY-SUR-SEINE,FRANCE,48.813055,2.38822
12220,JAKARTA,INDONESIE,-6.2087634,106.845599
35150,JANZE,FRANCE,47.959272,-1.498302
,JL ROTTERDAM,PAYS-BAS,52.359591,4.880162
89300,JOIGNY,FRANCE,47.981432,3.398961
94340,JOINVILLE LE PONT,FRANCE,48.821267,2.472043
94340,JOINVILLE-LE-PONT,FRANCE,48.821267,2.472043
37300,JOUÉ LÈS TOURS,FRANCE,47.351861,0.6613099
95280,JOUY LE MOUTIER,FRANCE,49.015695,2.047209
78354,JOUY-EN-JOSAS,FRANCE,48.764545,2.169007
95280,JOUY-LE-MOUTIER,FRANCE,49.015695,2.047209
6160,JUAN LES PINS,FRANCE,43.5691905,7.1123854
6160,JUAN-LES-PINS,FRANCE,43.5691905,7.1123854
65290,JUILLAN,FRANCE,43.2020539,0.022854
,JUNIN,ARGENTINA,-34.5885499,-60.949554
95280,JUOY LE MOUTIER,FRANCE,49.015695,2.047209
64110,JURANCON,FRANCE,43.287723,-0.390892
,KARLSRUHE,ALLEMAGNE,49.0068901,8.4036527
29860,KERSAINT-PLABENNEC,FRANCE,48.472186,-4.373712
,KOLBUSZOWA,POLAND,50.24417,21.77627
,KORBA,TUNISIE,36.580109,10.862119
,KRIVYI RIH,UKRAINE,47.910483,33.391783
,KUALA LUMPUR,MALAISIE,3.139003,101.686855
17137,L HOUMEAU,FRANCE,46.192722,-1.186318
31240,L UNION,FRANCE,43.657315,1.483893
78720,LA CELLE LES BORDES,FRANCE,48.636718,1.952697
78170,LA CELLE ST CLOUD,FRANCE,48.849766,2.132504
60520,LA CHAPELLE EN SERVAL,FRANCE,49.1275959,2.53451
13600,LA CIOTAT,FRANCE,43.173653,5.605155
79260,LA CRECHE,FRANCE,46.362313,-0.300911
92088,LA DÉFENSE CEDEX,FRANCE,48.8897359,2.2418428
92075,LA DEFENSE,FRANCE,48.8897359,2.2418428
92055,LA DEFENSE CEDEX,FRANCE,48.8897359,2.2418428
92095,LA DEFENSE CEDEX,FRANCE,48.8897359,2.2418428
98049,LA DEFENSE CEDEX,FRANCE,48.8897359,2.2418428
92250,LA GARENNE COLOMBE,FRANCE,48.906535,2.244085
92250,LA GARENNE COLOMBES,FRANCE,48.906535,2.244085
92250,LA GARENNE-COLOMBES,FRANCE,48.906535,2.244085
59110,LA MADELEINE,FRANCE,50.654836,3.073511
37390,LA MEMBROLLE SUR CHOISILLE,FRANCE,47.437707,0.638748
13821,LA PENNE SUR HUVEAUNE,FRANCE,43.282215,5.5156349
93210,LA PLAINE SAINT DENIS,FRANCE,48.9122322,2.3614119
93210,LA PLAINE SAINT DENIS CEDEX,FRANCE,48.9122322,2.3614119
93212,LA PLAINE SAINT DENIS CEDEX,FRANCE,48.9122322,2.3614119
94510,LA QUEUE EN BRIE,FRANCE,48.790857,2.5754929
85000,LA ROCHE SUR YON,FRANCE,46.670511,-1.426442
17000,LA ROCHELLE,FRANCE,46.160329,-1.151139
77000,LA ROCHETTE,FRANCE,45.459423,6.1166219
83500,LA SEYNE SUR MER,FRANCE,43.102976,5.878219
33260,LA TESTE,FRANCE,44.631077,-1.148224
38700,LA TRONCHE,FRANCE,45.205168,5.737805
94210,LA VARENNE SAINT HILAIRE,FRANCE,48.7947427,2.5163743
64320,LÉE,FRANCE,43.291864,-0.297399
31670,LABEGE,FRANCE,43.5367334,1.5280556
31760,LABEGE,FRANCE,43.5367334,1.5280556
77400,LAGNY SUR MARNE,FRANCE,48.87296,2.713016
13113,LAMANON,FRANCE,43.701368,5.084911
59130,LAMBERSART,FRANCE,50.652468,3.026676
13680,LANCON DE PROVENCE,FRANCE,43.591912,5.126824
29800,LANDERNEAU,FRANCE,48.450821,-4.248437
22360,LANGUEUX,FRANCE,48.494183,-2.714449
2000,LAON,FRANCE,49.564133,3.61989
65220,LAPEYRE,FRANCE,43.322621,0.33811
34970,LATTES,FRANCE,43.567296,3.896473
31180,LAUNAGUET,FRANCE,43.674268,1.456733
,LAUSANNE,SUISSE,46.5196535,6.6322734
13117,LAVÉRA,FRANCE,43.388073,5.030569
84330,LE BARROUX,FRANCE,44.137269,5.099823
17580,LE BOIS PLAGE,FRANCE,46.186424,-1.392017
66160,LE BOULOU,FRANCE,42.523836,2.8326349
32350,LE BROUILH MONBERT,FRANCE,43.665959,0.393196
78150,LE CHESNAY,FRANCE,48.825415,2.130544
33185,LE HAILLAN,FRANCE,44.873167,-0.677914
33187,LE HAILLAN CEDEX,FRANCE,44.873167,-0.677914
76620,LE HAVRE,FRANCE,49.49437,0.107929
94270,LE KREMLIN-BICÊTRE,FRANCE,48.810108,2.356972
72000,LE MANS,FRANCE,48.00611,0.199556
78600,LE MESNIL LE ROI,FRANCE,48.924857,2.123343
78230,LE PECQ,FRANCE,48.897267,2.106434
78610,LE PERRAY,FRANCE,48.696146,1.847679
78610,LE PERRAY EN YVELINES,FRANCE,48.696146,1.847679
94170,LE PERREUX-SUR-MARNE,FRANCE,48.841386,2.504038
33290,LE PIAN MÉDOC,FRANCE,44.954999,-0.670218
60330,LE PLESSIS BELLEVILLE,FRANCE,49.100689,2.755865
95130,LE PLESSIS BOUCHARD,FRANCE,49.003807,2.234035
92350,LE PLESSIS ROBINSON,FRANCE,48.780426,2.266257
92358,LE PLESSIS-ROBINSON CEDEX,FRANCE,48.780426,2.266257
43000,LE PUY EN VELAY,FRANCE,45.042768,3.882936
29480,LE RELECQ KERHUON,FRANCE,48.406325,-4.39258
35650,LE RHEU,FRANCE,48.101097,-1.795384
97231,LE ROBERT - MARTINIQUE,FRANCE,14.6769019,-60.9452794
33550,LE TOURNE,FRANCE,44.710956,-0.402461
38660,LE TOUVET,FRANCE,45.358854,5.950642
78110,LE VÉSINET,FRANCE,48.894198,2.134716
78110,LE VESINET,FRANCE,48.894198,2.134716
,LEBANON,LIBAN,33.854721,35.862285
64320,LEE,FRANCE,43.291864,-0.297399
,LEIRIA,PORTUGAL,39.7495331,-8.807683
30133,LES ANGLES,FRANCE,42.5772819,2.073585
78340,LES CLAYES SOUS BOIS,FRANCE,48.82342,1.976374
93260,LES LILAS,FRANCE,48.881935,2.419452
75350,LES LOGES EN JOSAS,FRANCE,48.764287,2.140358
78130,LES MUREAUX,FRANCE,48.990181,1.912178
78133,LES MUREAUX CEDEX,FRANCE,48.990181,1.912178
64230,LESCAR,FRANCE,43.333177,-0.434402
,LEUDELANGE,LUXEMBOURG,49.5658269,6.0578061
92300,LEVALLOIS,FRANCE,48.893217,2.287864
92300,LEVALLOIS PERRET,FRANCE,48.893217,2.287864
92309,LEVALLOIS PERRET,FRANCE,48.893217,2.287864
92593,LEVALLOIS PERRET CEDEX,FRANCE,48.893217,2.287864
92300,LEVALLOIS-PERRET,FRANCE,48.893217,2.287864
92301,LEVALLOIS-PERRET CEDEX,FRANCE,48.893217,2.287864
33500,LIBOURNE,FRANCE,44.912998,-0.243985
,LIBREVILLE,GABON,0.4161976,9.4672676
,LIEGE,BELGIQUE,50.6325574,5.5796662
59000,LILLE,FRANCE,50.62925,3.057256
59020,LILLE,FRANCE,50.62925,3.057256
59045,LILLE,FRANCE,50.62925,3.057256
59700,LILLE,FRANCE,50.62925,3.057256
59043,LILLE CEDEX,FRANCE,50.62925,3.057256
,LIMA,PEROU,-12.0463731,-77.042754
78520,LIMAY,FRANCE,48.992181,1.735384
94450,LIMEIL BRÉVANNES,FRANCE,48.7461849,2.492154
94450,LIMEIL BREVANNES,FRANCE,48.7461849,2.492154
87000,LIMOGES,FRANCE,45.833619,1.261105
,LISBOA,PORTUGAL,38.7222524,-9.1393366
,LISBON,PORTUGAL,38.7222524,-9.1393366
95290,L'ISLE ADAM,FRANCE,49.112288,2.217872
38080,L'ISLE D'ABEAU,FRANCE,45.623157,5.2301149
95290,L'ISLE-ADAM,FRANCE,49.112288,2.217872
91090,LISSES,FRANCE,48.597094,2.425046
,LIVANGE,LUXEMBOURG,49.52943,6.11884
,LODZ,POLAND,51.7592485,19.4559833
59182,LOFFRE,FRANCE,50.35407,3.17189
,LOMÉ,TOGO,6.1256261,1.2254183
59160,LOMME,FRANCE,50.6464173,2.9853856
,LONDON,UNITED KINGDOM,51.5073509,-0.1277583
,LONDON,UK,51.5073509,-0.1277583
,LONDON,ROYAUME-UNI,51.5073509,-0.1277583
,LONDON,ANGLETERRE,51.5073509,-0.1277583
,LONDON,ENGLAND,51.5073509,-0.1277583
,LONDON - E14 5HQ,ANGLETERRE,51.505644,-0.0174091
,LONDRES,ANGLETERRE,51.5073509,-0.1277583
,LONDRES,UNITED KINGDOM,51.5073509,-0.1277583
95450,LONGUESSE,FRANCE,49.062112,1.926149
64140,LONS,FRANCE,43.315739,-0.411051
56100,LORIENT,FRANCE,47.7482524,-3.3702449
,LOT,BE,50.773366,4.267942
22700,LOUANNEC,FRANCE,48.794593,-3.413004
65100,LOURDES,FRANCE,43.091463,-0.045726
78430,LOUVECIENNES,FRANCE,48.86189,2.112527
85400,LUÇON,FRANCE,46.454772,-1.167062
,LUXEMBOURG,LUXEMBOURG,49.611621,6.1319346
,LUXEMBOURG CITY,LUXEMBOURG,49.611621,6.1319346
95270,LUZARCHES,FRANCE,49.112677,2.421995
38200,LUZINAY,FRANCE,45.587509,4.9620689
,LYNGE,DANEMARK,55.8410507,12.2827589
69001,LYON,FRANCE,45.764043,4.835659
69002,LYON,FRANCE,45.764043,4.835659
69003,LYON,FRANCE,45.764043,4.835659
69004,LYON,FRANCE,45.764043,4.835659
69006,LYON,FRANCE,45.764043,4.835659
69007,LYON,FRANCE,45.764043,4.835659
69008,LYON,FRANCE,45.764043,4.835659
69009,LYON,FRANCE,45.764043,4.835659
69372,LYON,FRANCE,45.764043,4.835659
69003,LYON 3EME ARRONDISSEMENT,FRANCE,45.75826,4.855387
69456,LYON CEDEX 6,FRANCE,45.7850013,4.8546238
30340,MÉJANNES LES ALÉS,FRANCE,44.100383,4.154572
95540,MÉRY SUR OISE,FRANCE,49.064451,2.184997
71000,MACON,FRANCE,46.306806,4.830967
,MADRID,ESPANA,40.4167754,-3.7037902
95420,MAGNY EN VEXIN,FRANCE,49.1517259,1.787148
89100,MAILLOT,FRANCE,48.177976,3.30622
28130,MAINTENON,FRANCE,48.58715,1.57774
8140,MAIRY,FRANCE,49.648499,5.047979
94700,MAISONS ALFORT,FRANCE,48.801148,2.429443
78600,MAISONS LAFFITTE,FRANCE,48.947545,2.1423899
94700,MAISONS-ALFORT,FRANCE,48.801148,2.429443
78600,MAISONS-LAFFITTE,FRANCE,48.947545,2.1423899
57283,MAIZIERES-LES-METZ CEDEX,FRANCE,49.2102519,6.160064
92240,MALAKOFF,FRANCE,48.817275,2.2977599
,MANOUBAH,TUNISIE,36.8093284,10.0863269
78200,MANTES LA JOLIE,FRANCE,48.989323,1.714958
78711,MANTES LA VILLE,FRANCE,48.978154,1.713371
59159,MARCOING,FRANCE,50.121636,3.172462
95580,MARGENCY,FRANCE,49.002062,2.28818
13725,MARIGNANE CEDEX,FRANCE,43.4212739,5.218332
95640,MARINES,FRANCE,49.145308,1.980396
77610,MARLES-EN-BRIE,FRANCE,48.728161,2.879155
57155,MARLY,FRANCE,48.868389,2.097727
78160,MARLY LE ROI,FRANCE,48.868389,2.097727
78160,MARLY-LE-ROI,FRANCE,48.868389,2.097727
94440,MAROLLES EN BRIE,FRANCE,48.73421,2.551714
,MARRAKECH,MAROC,31.6294723,-7.9810845
13002,MARSEILLE,FRANCE,43.296482,5.36978
13004,MARSEILLE,FRANCE,43.296482,5.36978
13008,MARSEILLE,FRANCE,43.296482,5.36978
13009,MARSEILLE,FRANCE,43.296482,5.36978
13011,MARSEILLE,FRANCE,43.296482,5.36978
13012,MARSEILLE,FRANCE,43.296482,5.36978
13013,MARSEILLE,FRANCE,43.296482,5.36978
13014,MARSEILLE,FRANCE,43.296482,5.36978
13015,MARSEILLE,FRANCE,43.296482,5.36978
13381,MARSEILLE,FRANCE,43.296482,5.36978
13453,MARSEILLE,FRANCE,43.296482,5.36978
,MARTIGNY,SUISSE,46.1049798,7.0755334
,MASCOT,AUSTRALIA,-33.9291,151.18793
91300,MASSY,FRANCE,48.730756,2.27137
91300,MASSY,FRANCE,48.730756,2.27137
14920,MATHIEU,FRANCE,49.255496,-0.373351
59600,MAUBEUGE,FRANCE,50.280228,3.9674
64160,MAUCOR,FRANCE,43.35495,-0.277872
34130,MAUGUIO,FRANCE,43.6154409,4.010165
78580,MAULE,FRANCE,48.90909,1.849601
78780,MAURECOURT,FRANCE,48.996211,2.06347
78310,MAUREPAS,FRANCE,48.763451,1.940787
64110,MAZERES LEZONS,FRANCE,43.276305,-0.3548239
77100,MEAUX,FRANCE,48.9562018,2.8884657
,MEKNES,MAROC,33.8730164,-5.5407299
77000,MELUN,FRANCE,48.542105,2.6554
95180,MENUCOURT,FRANCE,49.024581,1.98347
95630,MERIEL,FRANCE,49.076769,2.206177
33700,MERIGNAC,FRANCE,44.8448769,-0.656358
60110,MERU,FRANCE,49.236009,2.13544
95540,MERY SUR OISE,FRANCE,49.064451,2.184997
57000,METZ,FRANCE,49.1193089,6.1757156
57070,METZ,FRANCE,49.1193089,6.1757156
57072,METZ CEDEX 3,FRANCE,49.1193089,6.1757156
92190,MEUDON,FRANCE,48.812995,2.23847
92366,MEUDON LA FORET CEDEX,FRANCE,48.7874732,2.2274853
78250,MEULAN,FRANCE,49.008107,1.916319
,MEXICO,MEXIQUE,19.4326077,-99.133208
38240,MEYLAN,FRANCE,45.209786,5.777628
74440,MIEUSSY,FRANCE,46.133933,6.524324
13140,MIRAMAS,FRANCE,43.588896,5.002136
32300,MIRANDE,FRANCE,43.516823,0.403639
34110,MIREVAL,FRANCE,43.508417,3.802455
17780,MOËZE,FRANCE,45.910503,-1.037033
98000,MONACO,FRANCE,43.7400718,7.4266436
,MONACO,MONACO,43.7384176,7.4246158
,MONS,BELGIQUE,50.4542408,3.956659
76130,MONT SAINT-AIGNAN,FRANCE,49.459778,1.079798
64121,MONTARDON,FRANCE,43.36846,-0.346729
82000,MONTAUBAN,FRANCE,44.0221252,1.3529599
38330,MONTBONNOT SAINT MARTIN,FRANCE,45.22538,5.801707
31310,MONTBRUN-BOCAGE,FRANCE,43.127905,1.2679069
40000,MONT-DE-MARSAN,FRANCE,43.893485,-0.499782
,MONT-DORE,NOUVELLE-CALEDONIE,-22.262617,166.565345
78360,MONTESSON,FRANCE,48.908587,2.149777
78490,MONTFORT L'AMAURY,FRANCE,48.772563,1.815425
91230,MONTGERON,FRANCE,48.703859,2.4604529
78180,MONTIGNY LE BRETONNEUX,FRANCE,48.7738734,2.0360157
95370,MONTIGNY LES CORMEILLES,FRANCE,48.987412,2.187929
95370,MONTIGNY-LÈS-CORMEILLES,FRANCE,48.987412,2.187929
78180,MONTIGNY-LE-BRETONNEUX,FRANCE,48.7738734,2.0360157
57950,MONTIGNY-LES-MONTIGNY,FRANCE,49.099256,6.149155
91310,MONTLHERY,FRANCE,48.638324,2.271502
95680,MONTLIGNON,FRANCE,49.016234,2.290857
3100,MONTLUCON,FRANCE,46.3415466,2.6019912
95360,MONTMAGNY,FRANCE,48.970556,2.343447
95160,MONTMORENCY,FRANCE,48.989714,2.321154
3150,MONTOLDRE,FRANCE,46.332826,3.448705
34070,MONTPELLIER,FRANCE,43.610769,3.876716
34080,MONTPELLIER,FRANCE,43.610769,3.876716
34077,MONTPELLIER CEDEX 3,FRANCE,43.5781683,3.8747736
34184,MONTPELLIER CEDEX 4,FRANCE,43.610769,3.876716
,MONTRÉAL,CANADA,45.5016889,-73.567256
,MONTRÉAL,QUÉBEC,45.5016889,-73.567256
,MONTRÉAL  QC,CANADA,45.5016889,-73.567256
,MONTREAL,CANADA,45.5016889,-73.567256
,MONTREAL (QUEBEC),CANADA,45.5016889,-73.567256
93100,MONTREUIL,FRANCE,48.863812,2.448451
93108,MONTREUIL CEDEX,FRANCE,48.863812,2.448451
93100,MONTREUIL-SOUS-BOIS,FRANCE,48.863812,2.448451
92120,MONTROUGE,FRANCE,48.816363,2.317384
95541,MONTROUGE,FRANCE,48.816363,2.317384
92127,MONTROUGE CEDEX,FRANCE,48.816363,2.317384
,MONT-SUR-MARCHIENNE,BELGIQUE,50.3886584,4.405458
27150,MORGNY,FRANCE,49.382342,1.589601
,MOUNTAIN VIEW,ETATS-UNIS,37.3860517,-122.0838511
,MOUNTAIN VIEW  CA,ETATS UNIS,37.3860517,-122.0838511
68100,MULHOUSE,FRANCE,47.750839,7.335888
,MUNCHEN,ALLEMAGNE,48.1351253,11.5819805
67450,MUNDOLSHEIM,FRANCE,48.6434829,7.7144412
,MUNICH,ALLEMAGNE,48.1351253,11.5819805
,NABEUL,TUNISIE,36.4512893,10.7356634
54000,NANCY,FRANCE,48.691807,6.183741
74380,NANGY,FRANCE,46.153703,6.308034
,NANJING,CHINE,32.060255,118.796877
92000,NANTERRE,FRANCE,48.892423,2.215331
92016,NANTERRE,FRANCE,48.892423,2.215331
92200,NANTERRE,FRANCE,48.892423,2.215331
92000,NANTERRE CEDEX,FRANCE,48.892423,2.215331
92005,NANTERRE CEDEX,FRANCE,48.892423,2.215331
92017,NANTERRE CEDEX,FRANCE,48.892423,2.215331
92022,NANTERRE CEDEX,FRANCE,48.892423,2.215331
92728,NANTERRE CEDEX,FRANCE,48.892423,2.215331
44000,NANTES,FRANCE,47.218371,-1.553621
44100,NANTES,FRANCE,47.218371,-1.553621
44323,NANTES CEDEX 3,FRANCE,47.239706,-1.55595
79400,NANTEUIL,FRANCE,46.411593,-0.172909
64450,NAVAILLES-ANGOS,FRANCE,43.413443,-0.34172
95690,NESLES LA VALLEE,FRANCE,49.128845,2.169665
,NETANVA,ISRAEL,32.321458,34.853196
92200,NEUILLY,FRANCE,48.884831,2.26851
93360,NEUILLY PLAISANCE,FRANCE,48.865205,2.509142
92200,NEUILLY SUR SEINE,FRANCE,48.884831,2.26851
92205,NEUILLY SUR SEINE,FRANCE,48.884831,2.26851
92521,NEUILLY SUR SEINE,FRANCE,48.884831,2.26851
92523,NEUILLY SUR SEINE,FRANCE,48.884831,2.26851
92525,NEUILLY SUR SEINE,FRANCE,48.884831,2.26851
92208,NEUILLY SUR SEINE CEDEX,FRANCE,48.884831,2.26851
92522,NEUILLY SUR SEINE CEDEX,FRANCE,48.884831,2.26851
93330,NEUILLY-SUR-MARNE,FRANCE,48.856898,2.528373
92200,NEUILLY-SUR-SEINE,FRANCE,48.884831,2.26851
95000,NEUVILLE,FRANCE,49.016961,2.063568
95000,NEUVILLE SUR OISE,FRANCE,49.017179,2.063418
95015,NEUVILLE SUR OISE,FRANCE,49.017179,2.063418
95000,NEUVILLE-SUR-OISE,FRANCE,49.017179,2.063418
,NEW YORK,US,40.7127753,-74.0059728
6000,NICE,FRANCE,43.7101728,7.2619532
6200,NICE,FRANCE,43.7101728,7.2619532
6205,NICE CEDEX 3,FRANCE,43.708656,7.1896452
17137,NIEUL SUR MER,FRANCE,46.206687,-1.1635089
30900,NIMES,FRANCE,43.836699,4.360054
30035,NIMES CEDEX 01,FRANCE,43.836699,4.360054
79000,NIORT,FRANCE,46.323716,-0.464777
94130,NOGENT SUR MARNE,FRANCE,48.837631,2.481699
93160,NOISY LE GRAND,FRANCE,48.848579,2.55261
93881,NOISY LE GRAND,FRANCE,48.848579,2.55261
78590,NOISY LE ROI,FRANCE,48.843815,2.064579
78590,NOISY-LE-ROI,FRANCE,48.843815,2.064579
37390,NOTRE DAME D'OÉ,FRANCE,47.457142,0.707757
86340,NOUAILLE MAUPERTUIS,FRANCE,46.5024643,0.4127503
64420,NOUSTY,FRANCE,43.267379,-0.209713
,NOVOSIBIRSK,RUSSIE,55.0083526,82.9357327
64400,OLORON SAINTE MARIE,FRANCE,43.194413,-0.605292
78630,ORGEVAL,FRANCE,48.918524,1.96978
45000,ORLEANS,FRANCE,47.901933,1.907782
45100,ORLEANS,FRANCE,47.902964,1.909251
45043,ORLEANS CEDEX 1,FRANCE,47.902964,1.909251
94396,ORLY AEROGARE CEDEX,FRANCE,48.7262433,2.3652472
94490,ORMESSON SUR MARNE,FRANCE,48.785694,2.541046
91400,ORSAY,FRANCE,48.697161,2.189617
91405,ORSAY,FRANCE,48.697161,2.189617
64300,ORTHEZ,FRANCE,43.48756,-0.7739279
44700,ORVAULT,FRANCE,47.274344,-1.619405
,OSAKA,JAPAN,34.6937249,135.5022535
,OSAKA,JAPON,34.6937249,135.5022535
,OSAKA PREFECTURE,JAPAN,34.6413315,135.5629394
95520,OSNY,FRANCE,49.069751,2.062293
64160,OUILLON,FRANCE,43.320512,-0.224915
91120,PALAISEAU,FRANCE,48.714509,2.245748
,PAMPLEMOUSSES,ILE MAURICE,-20.1136008,57.575926
93500,PANTIN,FRANCE,48.894533,2.40963
,PAPEETE,POLYNESIE FRANCAISE,-17.5516251,-149.5584758
,PAPEETE,TAHITI,-17.5516251,-149.5584758
,PAPEETE,POLYNÉSIE FRANÇAISE,-17.5516251,-149.5584758
91551,PARAY-VIELLE-POSTE CEDEX,FRANCE,48.7129143,2.3629838
72250,PARIGNE L'EVEQUE,FRANCE,47.937377,0.367055
75001,PARIS,FRANCE,48.856614,2.3522219
75002,PARIS,FRANCE,48.856614,2.3522219
75003,PARIS,FRANCE,48.856614,2.3522219
75004,PARIS,FRANCE,48.856614,2.3522219
75005,PARIS,FRANCE,48.856614,2.3522219
75006,PARIS,FRANCE,48.856614,2.3522219
75007,PARIS,FRANCE,48.856614,2.3522219
75008,PARIS,FRANCE,48.856614,2.3522219
75009,PARIS,FRANCE,48.856614,2.3522219
75010,PARIS,FRANCE,48.856614,2.3522219
75011,PARIS,FRANCE,48.856614,2.3522219
75012,PARIS,FRANCE,48.856614,2.3522219
75013,PARIS,FRANCE,48.856614,2.3522219
75014,PARIS,FRANCE,48.856614,2.3522219
75015,PARIS,FRANCE,48.856614,2.3522219
75016,PARIS,FRANCE,48.856614,2.3522219
75017,PARIS,FRANCE,48.856614,2.3522219
75018,PARIS,FRANCE,48.856614,2.3522219
75019,PARIS,FRANCE,48.856614,2.3522219
75020,PARIS,FRANCE,48.856614,2.3522219
75116,PARIS,FRANCE,48.856614,2.3522219
75356,PARIS,FRANCE,48.856614,2.3522219
75357,PARIS,FRANCE,48.856614,2.3522219
75512,PARIS,FRANCE,48.856614,2.3522219
75732,PARIS,FRANCE,48.856614,2.3522219
75784,PARIS,FRANCE,48.856614,2.3522219
75800,PARIS,FRANCE,48.856614,2.3522219
94854,PARIS,FRANCE,48.856614,2.3522219
75002,PARIS 02EME ARRONDISSEMENT,FRANCE,48.8675641,2.34399
75008,PARIS 08EME ARRONDISSEMENT,FRANCE,48.8718722,2.3176432
75009,PARIS 09EME ARRONDISSEMENT,FRANCE,48.8790183,2.3379063
75010,PARIS 10EME ARRONDISSEMENT,FRANCE,48.8785618,2.3603689
75011,PARIS 11EME ARRONDISSEME,FRANCE,48.857993,2.381153
75011,PARIS 11EME ARRONDISSEMENT,FRANCE,48.857993,2.381153
75013,PARIS 13EME ARRONDISSEMENT,FRANCE,48.830759,2.359204
75014,PARIS 14EME ARRONDISSEMENT,FRANCE,48.8314408,2.3255684
75015,PARIS 15EME ARRONDISSEME,FRANCE,48.8421616,2.2927665
75016,PARIS 16EME ARRONDISSEME,FRANCE,48.8585799,2.2847017
75019,PARIS 19EME ARRONDISSEMENT,FRANCE,48.8823761,2.3822917
75020,PARIS 20EME ARRONDISSEMENT,FRANCE,48.8599825,2.4066412
75636,PARIS CEDEX,FRANCE,48.856614,2.3522219
75647,PARIS CEDEX,FRANCE,48.856614,2.3522219
75252,PARIS CEDEX 05,FRANCE,48.8434912,2.3518339
75275,PARIS CEDEX 06,FRANCE,48.856614,2.3522219
75401,PARIS CEDEX 08,FRANCE,48.8718722,2.3176432
75438,PARIS CEDEX 09,FRANCE,48.856614,2.3522219
75450,PARIS CEDEX 09,FRANCE,48.856614,2.3522219
75583,PARIS CEDEX 12,FRANCE,48.8293647,2.4265406
75206,PARIS CEDEX 13,FRANCE,48.914324,2.283979
75627,PARIS CEDEX 13,FRANCE,48.914324,2.283979
75634,PARIS CEDEX 13,FRANCE,48.914324,2.283979
75685,PARIS CEDEX 14,FRANCE,48.8314408,2.3255684
75505,PARIS CEDEX 15,FRANCE,48.8421616,2.2927665
75724,PARIS CEDEX 15,FRANCE,48.8421616,2.2927665
75739,PARIS CEDEX 15,FRANCE,48.8421616,2.2927665
75782,PARIS CEDEX 16,FRANCE,48.856614,2.3522219
75795,PARIS CEDEX 16,FRANCE,48.856614,2.3522219
75817,PARIS CEDEX 17,FRANCE,48.856614,2.3522219
75886,PARIS CEDEX 18,FRANCE,48.856614,2.3522219
75892,PARIS CEDEX 18,FRANCE,48.856614,2.3522219
75168,PARIS CEDEX 19,FRANCE,48.8823761,2.3822917
75954,PARIS CEDEX 19,FRANCE,48.8823761,2.3822917
75986,PARIS CEDEX 20,FRANCE,48.8599825,2.4066412
75419,PARIS CEDEX 8,FRANCE,48.856614,2.3522219
75427,PARIS CEDEX 9,FRANCE,48.856614,2.3522219
92057,PARIS LA DÉFENSE,FRANCE,48.8897359,2.2418428
92927,PARIS LA DÉFENSE,FRANCE,48.8897359,2.2418428
92932,PARIS LA DÉFENSE,FRANCE,48.8897359,2.2418428
92920,PARIS LA DÉFENSE CEDEX,FRANCE,48.8897359,2.2418428
92042,PARIS LA DEFENSE,FRANCE,48.8897359,2.2418428
92054,PARIS LA DEFENSE,FRANCE,48.8897359,2.2418428
92907,PARIS LA DEFENSE,FRANCE,48.8897359,2.2418428
92927,PARIS LA DEFENSE,FRANCE,48.8897359,2.2418428
92932,PARIS LA DEFENSE,FRANCE,48.8897359,2.2418428
92937,PARIS LA DEFENSE 12 CEDEX,FRANCE,48.8942654,2.2365736
92061,PARIS LA DEFENSE 5,FRANCE,48.8897359,2.2418428
75008,PARIS LA DEFENSE CEDEX,FRANCE,48.8897359,2.2418428
92042,PARIS LA DEFENSE CEDEX,FRANCE,48.8897359,2.2418428
92050,PARIS LA DEFENSE CEDEX,FRANCE,48.8897359,2.2418428
92066,PARIS LA DEFENSE CEDEX,FRANCE,48.8897359,2.2418428
92069,PARIS LA DEFENSE CEDEX,FRANCE,48.8897359,2.2418428
92079,PARIS LA DEFENSE CEDEX,FRANCE,48.8897359,2.2418428
92081,PARIS LA DEFENSE CEDEX,FRANCE,48.8897359,2.2418428
92082,PARIS LA DEFENSE CEDEX,FRANCE,48.8897359,2.2418428
92097,PARIS LA DEFENSE CEDEX,FRANCE,48.8897359,2.2418428
92098,PARIS LA DEFENSE CEDEX,FRANCE,48.8897359,2.2418428
92919,PARIS LA DEFENSE CEDEX,FRANCE,48.8897359,2.2418428
92920,PARIS LA DEFENSE CEDEX,FRANCE,48.8897359,2.2418428
92927,PARIS LA DEFENSE CEDEX,FRANCE,48.8897359,2.2418428
92930,PARIS LA DEFENSE CEDEX,FRANCE,48.8897359,2.2418428
75700,PARIS SP 07,FRANCE,48.8598515,2.319464
75355,PARIS SP 7,FRANCE,48.8543345,2.3134029
75015,PARIS  15E ARRONDISSEMENT,FRANCE,48.8421616,2.2927665
95620,PARMAIN,FRANCE,49.113904,2.208519
64000,PAU,FRANCE,43.2951,-0.370797
64010,PAU,FRANCE,43.2951,-0.370797
64062,PAU,FRANCE,43.2951,-0.370797
64075,PAU,FRANCE,43.2951,-0.370797
64053,PAU CDX,FRANCE,43.2951,-0.370797
64001,PAU CEDEX,FRANCE,43.2951,-0.370797
64018,PAU CEDEX,FRANCE,43.2951,-0.370797
64075,PAU CEDEX,FRANCE,43.2951,-0.370797
64054,PAU CEDEX 09,FRANCE,43.2951,-0.370797
64058,PAU CEDEX 09,FRANCE,43.2951,-0.370797
64000,PAU CEDEX 9,FRANCE,43.2951,-0.370797
64053,PAU CEDEX 9,FRANCE,43.2951,-0.370797
6440,PEILLE,FRANCE,43.8044878,7.4034648
63170,PERIGNAT-LES-SARLIEVE,FRANCE,45.735773,3.138817
84120,PERTUIS,FRANCE,43.694275,5.501843
33600,PESSAC,FRANCE,44.80583,-0.630386
6530,PEYMEINADE,FRANCE,43.643116,6.875682
,PFAFFNAU/LU,SUISSE,47.2268257,7.8961115
31820,PIBRAC,FRANCE,43.618937,1.283406
93380,PIERREFITTE-SUR-SEINE,FRANCE,48.967903,2.364077
95480,PIERRELAYE,FRANCE,49.022697,2.1547299
,PILANI,INDIA,28.3802101,75.6091696
31860,PINS JUSTARET,FRANCE,43.482427,1.39144
,PIRAE,TAHITI,-17.577554,-149.5239147
31830,PLAISANCE DU TOUCH,FRANCE,43.564686,1.2949
78370,PLAISIR,FRANCE,48.817223,1.949075
95130,PLESSIS BOUCHARD,FRANCE,49.003807,2.234035
29470,PLOUGASTEL,FRANCE,48.374051,-4.369108
64230,POEY DE LESCAR,FRANCE,43.35113,-0.469217
78300,POISSY,FRANCE,48.929584,2.046982
78092,POISSY CEDEX 09,FRANCE,48.929584,2.046982
,PONDICHERY,INDE,11.9415915,79.8083133
95300,PONTOISE,FRANCE,49.050966,2.100645
,PORT LOUIS,MAURITIUS,-20.1608912,57.5012222
31120,PORTET SUR GARONNE,FRANCE,43.528559,1.399535
31128,PORTET SUR GARONNE,FRANCE,43.528559,1.399535
,POZUELO DE ALARCON,ESPAGNE,40.4440627,-3.8058517
92088,PUTEAUX,FRANCE,48.884748,2.23964
92800,PUTEAUX,FRANCE,48.884748,2.23964
92806,PUTEAUX,FRANCE,48.884748,2.23964
92807,PUTEAUX CEDEX,FRANCE,48.884748,2.23964
92816,PUTEAUX CEDEX,FRANCE,48.884748,2.23964
92800,PUTEAUXFRANCE,FRANCE,48.884748,2.23964
,QUEBEC,CANADA,52.9399159,-73.5491361
56170,QUIBERON,FRANCE,47.482133,-3.121053
,RABAT,MAROC,33.9715904,-6.8498129
,RADES,TUNISIE,36.7715984,10.2768388
,RAJASTHAN,INDIA,27.0238036,74.2179326
78120,RAMBOUILLET,FRANCE,48.643868,1.829079
31520,RAMONVILLE SAINT AGNE,FRANCE,43.543794,1.4784139
35000,RENNES,FRANCE,48.117266,-1.6777926
35700,RENNES,FRANCE,48.117266,-1.6777926
,REYKJAVIK,ISLANDE,64.146582,-21.9426354
57270,RICHEMONT,FRANCE,49.283187,6.161437
91130,RIS-ORANGIS,FRANCE,48.645663,2.410451
17303,ROCHEFORT CEDEX,FRANCE,45.936698,-0.961697
12390,RODEZ,FRANCE,44.349389,2.575986
,ROEDT,LUXEMBOURG,49.5695,6.284
95723,ROISSY CDG CEDEX 1,FRANCE,49.0096906,2.5479245
77680,ROISSY EN BRIE,FRANCE,48.7904005,2.656802
,ROMSEY  HAMPSHIRE,UNITED KINGDOM,50.98893,-1.49658
59790,RONCHIN,FRANCE,50.605934,3.078683
3150,RONGÈRES,FRANCE,46.294174,3.450317
93111,ROSNY-SOUS-BOIS CEDEX,FRANCE,48.875661,2.485932
29140,ROSPORDEN,FRANCE,47.959311,-3.828027
,ROTTERDAM,PAYS-BAS,51.9244201,4.4777326
59100,ROUBAIX,FRANCE,50.6927049,3.177847
76174,ROUEN CEDEX,FRANCE,49.443232,1.099971
76175,ROUEN CEDEX,FRANCE,49.443232,1.099971
76038,ROUEN CEDEX 1,FRANCE,49.443232,1.099971
21110,ROUVRES EN PLAINE,FRANCE,47.236326,5.14569
17200,ROYAN,FRANCE,45.623027,-1.043182
92500,RUEIL MALMAISON,FRANCE,48.882767,2.17693
92848,RUEIL MALMAISON CEDEX,FRANCE,48.882767,2.17693
92500,RUEIL-MALMAISON,FRANCE,48.882767,2.17693
92852,RUEIL-MALMAISON,FRANCE,48.882767,2.17693
92310,SÈVRES,FRANCE,48.8212407,2.2109771
,SAFI,MAROC,32.3008151,-9.2272033
,SÃO PAULO,BRÉSIL,-23.5505199,-46.6333094
95450,SAGY,FRANCE,46.597876,5.307589
62114,SAINS EN GOHELLE,FRANCE,50.452309,2.683207
31140,SAINT ALBAN,FRANCE,43.692725,1.4138599
13670,SAINT ANDIOL,FRANCE,43.835465,4.944566
,SAINT ANDRE,FRANCE,42.553361,2.975256
76410,SAINT AUBIN LES ELBEUF,FRANCE,49.299076,1.012997
95350,SAINT BRICE SOUS FORET,FRANCE,48.999429,2.356007
92210,SAINT CLOUD,FRANCE,48.847647,2.208115
92213,SAINT CLOUD CEDEX,FRANCE,48.847647,2.208115
78210,SAINT CYR L'ECOLE,FRANCE,48.806421,2.0657
83270,SAINT CYR SUR MER,FRANCE,43.1826409,5.709571
93200,SAINT DENIS,FRANCE,48.936181,2.357443
93210,SAINT DENIS,FRANCE,48.936181,2.357443
97744,SAINT DENIS,FRANCE,48.936181,2.357443
97801,SAINT DENIS,FRANCE,48.936181,2.357443
93285,SAINT DENIS CEDEX,FRANCE,48.936181,2.357443
42000,SAINT ETIENNE,FRANCE,45.439695,4.3871779
76800,SAINT ETIENNE DU ROUVRAY,FRANCE,49.380305,1.108209
89600,SAINT FLORENTIN,FRANCE,48.000552,3.729512
69230,SAINT GENIS LAVAL,FRANCE,45.691999,4.792768
78100,SAINT GERMAIN EN LAYE,FRANCE,48.898908,2.093761
78100,SAINT GERMAIN-EN-LAYE,FRANCE,48.898908,2.093761
30320,SAINT GERVASY,FRANCE,43.877254,4.468303
95210,SAINT GRATIEN,FRANCE,48.970259,2.286571
44803,SAINT HERBLAIN CEDEX,FRANCE,47.210335,-1.651444
38330,SAINT ISMIER,FRANCE,45.248534,5.828113
45800,SAINT JEAN DE BRAYE,FRANCE,47.912048,1.970843
64500,SAINT JEAN DE LUZ,FRANCE,43.388051,-1.663055
33127,SAINT JEAN D'ILLAC,FRANCE,44.811257,-0.782209
,SAINT JEROME  QUEBEC,CANADA,45.775357,-74.004948
,SAINT JULIAN'S,MALTE,35.9181297,14.4883442
28700,SAINT LÉGER DES AUBÉES,FRANCE,48.41214,1.739329
95320,SAINT LEU LA FORÊT,FRANCE,49.019157,2.247531
95320,SAINT LEU LA FORET,FRANCE,49.019157,2.247531
85150,SAINT MATHURIN,FRANCE,46.5650819,-1.713651
94100,SAINT MAUR,FRANCE,48.8029439,2.485429
94100,SAINT MAUR DES FOSSÉS,FRANCE,48.8029439,2.485429
94210,SAINT MAUR DES FOSSÉS,FRANCE,48.8029439,2.485429
94100,SAINT MAUR DES FOSSES,FRANCE,48.8029439,2.485429
56250,SAINT NOLFF,FRANCE,47.702885,-2.651779
93400,SAINT OUEN,FRANCE,48.911856,2.333764
93406,SAINT OUEN CEDEX,FRANCE,48.911856,2.333764
95310,SAINT OUEN L AUMONE,FRANCE,49.04313,2.105287
95310,SAINT OUEN L'AUMÔNE,FRANCE,49.04313,2.105287
95310,SAINT OUEN L'AUMONE,FRANCE,49.04313,2.105287
13115,SAINT PAUL LEZ DURANCE,FRANCE,43.6870649,5.707942
95390,SAINT PRIX,FRANCE,49.006469,2.262489
78067,SAINT QUENTIN EN YVELINES,FRANCE,48.7700557,2.0249544
30700,SAINT SIFFRET,FRANCE,44.017003,4.467847
95470,SAINT WITZ,FRANCE,49.091281,2.567086
46400,SAINT-CÉRÉ,FRANCE,44.859439,1.892482
92210,SAINT-CLOUD,FRANCE,48.847729,2.208002
92213,SAINT-CLOUD,FRANCE,48.847647,2.208115
93200,SAINT-DENIS,FRANCE,48.936181,2.357443
93210,SAINT-DENIS,FRANCE,48.936181,2.357443
93526,SAINT-DENIS,FRANCE,48.936181,2.357443
93527,SAINT-DENIS CEDEX,FRANCE,48.936181,2.357443
97490,SAINTE CLOTILDE,FRANCE,48.858531,2.3193114
89000,SAINT-GEORGES-SUR-BAULCHE,FRANCE,47.804899,3.532801
78100,SAINT-GERMAIN-EN-LAYE,FRANCE,48.898908,2.093761
95420,SAINT-GERVAIS,FRANCE,45.892013,6.712187
44800,SAINT-HERBLAIN,FRANCE,47.210335,-1.651444
,SAINT-JEROME,QUEBEC,45.775357,-74.004948
,SAINT-LAURENT  QUEBEC,CANADA,45.4985638,-73.7497567
95320,SAINT-LEU-LA-FORÊT,FRANCE,49.019157,2.247531
60860,SAINT-OMER-EN-CHAUSSÉE,FRANCE,49.531947,2.003601
93400,SAINT-OUEN,FRANCE,48.911856,2.333764
95310,SAINT-OUEN L'AUMÔNE,FRANCE,49.04313,2.105287
95310,SAINT-OUEN-L'AUMÔNE,FRANCE,49.04313,2.105287
97410,SAINT-PIERRE,FRANCE,-21.331003,55.454785
95390,SAINT-PRIX,FRANCE,49.006469,2.262489
18300,SAINT-SATUR,FRANCE,47.340123,2.852459
30340,SALINDRES,FRANCE,44.167109,4.160302
33770,SALLES,FRANCE,44.550837,-0.869955
,SALVADOR,BRÉSIL,-12.977749,-38.5016301
,SALVADOR,BRAZIL,-12.977749,-38.5016301
,SAN FRANCISCO,UNITED STATES OF AMERICA,37.7749295,-122.4194155
,SAN MARTIN DE PORRES - LIMA,PEROU,-11.9815573,-77.096882
95110,SANNOIS,FRANCE,48.970782,2.256869
,SAO PAULO,BRESIL,-23.5505199,-46.6333094
,SAO PEDRO DA COVA,PORTUGAL,41.1424361,-8.5007116
78500,SARTROUVILLE,FRANCE,48.941106,2.158431
40180,SAUGNAC ET CAMBRAN,FRANCE,43.671627,-0.993216
78650,SAULX MARCHAIS,FRANCE,48.837981,1.837164
34160,SAUSSINES,FRANCE,43.76385,4.056482
64230,SAUVAGNON,FRANCE,43.403093,-0.387285
77176,SAVIGNY LE TEMPLE,FRANCE,48.59586,2.580987
91600,SAVIGNY SUR ORGE,FRANCE,48.6851259,2.349282
92330,SCEAUX,FRANCE,48.778016,2.295092
,SCHILTACH,ALLEMAGNE,48.2917596,8.3468916
67300,SCHILTIGHEIM,FRANCE,48.605226,7.748453
40510,SEIGNOSSE,FRANCE,43.692694,-1.384908
65600,SEMEAC,FRANCE,43.228502,0.104721
,SEMINYAK,INDONESIE,-8.6912894,115.1681653
,SERAING,BELGIQUE,50.5838832,5.4996296
64121,SERRES CASTET,FRANCE,43.387059,-0.356255
64170,SERRES ST MARIE,FRANCE,43.414087,-0.55178
77700,SERRIS,FRANCE,48.84432,2.788231
92310,SEVRES,FRANCE,48.8212407,2.2109771
38180,SEYSSINS,FRANCE,45.162241,5.686729
,SFAX,MAROC,34.739822,10.7600196
,SHANGAI,CHINE,31.230416,121.473701
,SHANGHAI,CHINA,31.230416,121.473701
,SHANGHAI,CHINE,31.230416,121.473701
,SHENGYANG,CHINE,41.805699,123.431472
,SHENZHEN,P.R. CHINA,22.543096,114.057865
74330,SILLINGY,FRANCE,45.946611,6.035302
,SINGAPORE,SINGAPORE,1.352083,103.819836
,SINGAPOUR,SINGAPOUR,1.352083,103.819836
59450,SIN-LE-NOBLE,FRANCE,50.365851,3.114329
77115,SIVRY-COURTRY,FRANCE,48.527629,2.755006
,SLOUGH,ENGLAND,51.5105384,-0.5950406
95230,SOISY SOUS MONTMORENCY,FRANCE,48.988506,2.299731
69360,SOLAIZE,FRANCE,45.6395505,4.8409146
83210,SOLLIÈS VILLE,FRANCE,43.182433,6.038751
6904,SOPHIA ANTIPOLIS,FRANCE,43.6163539,7.0552218
6902,SOPHIA ANTIPOLIS CEDEX,FRANCE,43.6163539,7.0552218
53210,SOULGE SUR OUETTE,FRANCE,48.060099,-0.56938
64420,SOUMOULOU,FRANCE,43.261946,-0.191968
20226,SPELONCATO,FRANCE,42.562039,8.981667
59230,ST AMAND LES EAUX,FRANCE,50.448979,3.428713
92210,ST CLOUD,FRANCE,48.847729,2.208002
95420,ST GERVAIS,FRANCE,45.892013,6.712187
65150,ST LAURENT DE NESTE,FRANCE,43.0777519,0.48316
94100,ST MAUR DES FOSSES,FRANCE,48.8029439,2.485429
44600,ST NAZAIRE,FRANCE,47.2734979,-2.213848
95310,ST OUEN L AUMONE,FRANCE,49.04313,2.105287
40280,ST PIERRE DU MONT,FRANCE,49.3866226,-0.9728898
95390,ST PRIX,FRANCE,49.006469,2.262489
78185,ST QUENTIN EN YVELINES,FRANCE,48.7700557,2.0249544
93240,STAINS,FRANCE,48.955387,2.384703
,STOCKOLM,SUÈDE,59.3293235,18.0685808
67000,STRASBOURG,FRANCE,48.5734053,7.7521113
67200,STRASBOURG,FRANCE,48.5734053,7.7521113
67201,STRASBOURG,FRANCE,48.5734053,7.7521113
67906,STRASBOURG CEDEX 09,FRANCE,48.5734053,7.7521113
71220,SUIN,FRANCE,46.433538,4.472099
,SURABAYA,INDONESIE,-7.2574719,112.7520883
92150,SURESNES,FRANCE,48.869798,2.219033
92150,SURESNES,FRANCE,48.869798,2.219033
92284,SURESNES CEDEX,FRANCE,48.869798,2.219033
92287,SURESNES CEDEX,FRANCE,48.869798,2.219033
33402,TALENCE,FRANCE,44.802614,-0.588054
,TAMPERE,FINLANDE,61.4977524,23.7609535
65000,TARBES,FRANCE,43.232951,0.078082
40220,TARNOS,FRANCE,43.5408,-1.461038
69160,TASSIN,FRANCE,45.761337,4.776921
95150,TAVERNY,FRANCE,49.027441,2.223507
,TEL AVIV,ISRAEL,32.0852999,34.7817676
59229,TETEGHEM,FRANCE,51.0179199,2.440483
95450,THÉMÉRICOURT,FRANCE,49.091357,1.904394
56450,THEIX,FRANCE,47.62936,-2.649744
94320,THIAIS,FRANCE,48.760344,2.387405
,TIANJIN,CHINE,39.3433574,117.3616476
,TIANJIN,CHINA,39.3433574,117.3616476
,TOKYO,JAPON,35.6761919,139.6503106
,TOMSK,RUSSIA,56.5010397,84.9924506
44470,TOUARE-SUR-LOIRE,FRANCE,47.267411,-1.4403729
89130,TOUCY,FRANCE,47.7350629,3.29435
59390,TOUFFLERS,FRANCE,50.66108,3.232325
83000,TOULON,FRANCE,43.124228,5.928
83050,TOULON CEDEX,FRANCE,43.124228,5.928
66350,TOULOUGES,FRANCE,42.670843,2.83075
31000,TOULOUSE,FRANCE,43.604652,1.444209
31016,TOULOUSE,FRANCE,43.604652,1.444209
31024,TOULOUSE,FRANCE,43.604652,1.444209
31036,TOULOUSE,FRANCE,43.604652,1.444209
31060,TOULOUSE,FRANCE,43.604652,1.444209
31077,TOULOUSE,FRANCE,43.604652,1.444209
31100,TOULOUSE,FRANCE,43.604652,1.444209
31101,TOULOUSE,FRANCE,43.604652,1.444209
31200,TOULOUSE,FRANCE,43.604652,1.444209
31400,TOULOUSE,FRANCE,43.604652,1.444209
31500,TOULOUSE,FRANCE,43.604652,1.444209
31036,TOULOUSE CEDEX 1,FRANCE,43.5686885,1.387435
31204,TOULOUSE CEDEX 1,FRANCE,43.5686885,1.387435
31024,TOULOUSE CEDEX 3,FRANCE,43.604652,1.444209
31030,TOULOUSE CEDEX 4,FRANCE,43.5633427,1.4768695
31015,TOULOUSE CEDEX 6,FRANCE,43.604652,1.444209
77220,TOURNAN-EN-BRIE,FRANCE,48.7398899,2.7657824
31170,TOURNEFEUILLE,FRANCE,43.5829,1.346834
37200,TOURS,FRANCE,47.394144,0.68484
16600,TOUVRE,FRANCE,45.659962,0.261565
78190,TRAPPES,FRANCE,48.776731,2.001844
78197,TRAPPES CEDEX,FRANCE,48.776731,2.001844
93290,TREMBLAY EN FRANCE,FRANCE,48.979952,2.557211
93290,TREMBLAY-EN-FRANCE,FRANCE,48.979952,2.557211
,TUNIS,TUNISIE,36.8064948,10.1815316
,TUNIS CARTHAGE,TUNISIE,36.8458578,10.2190745
95450,US,FRANCE,49.105158,1.959076
64110,UZOS,FRANCE,43.26932,-0.344025
78140,VÉLIZY-VILLACOUBLAY,FRANCE,48.787899,2.190408
77360,VAIRES SUR MARNES,FRANCE,48.873609,2.639543
84110,VAISON-LA-ROMAINE,FRANCE,44.240968,5.075198
27104,VAL DE REUIL CEDEX,FRANCE,49.272602,1.217085
6560,VALBONNE,FRANCE,43.64152,7.009186
6560,VALBONNE SOPHIA ANTIPOLLS,FRANCE,43.6163539,7.0552218
,VALENCIA,ESPAGNE,39.4699075,-0.3762881
,VALENCIA,SPAIN,39.4699075,-0.3762881
31290,VALLÈGUE,FRANCE,43.425548,1.754698
95810,VALLANGOUJARD,FRANCE,49.137678,2.114265
54500,VANDOEUVRE,FRANCE,48.661118,6.17376
54506,VANDOEUVRE LES NANCY,FRANCE,48.661118,6.17376
56000,VANNES,FRANCE,47.658236,-2.760847
92420,VAUCRESSON,FRANCE,48.84389,2.1624469
69120,VAULX-EN VELIN,FRANCE,45.782029,4.922661
78800,VAURÉAL,FRANCE,49.029373,2.023163
95490,VAURÉAL,FRANCE,49.029373,2.023163
95490,VAUREAL,FRANCE,49.029373,2.023163
78740,VAUX SUR SEINE,FRANCE,49.009778,1.965047
51300,VAVRAY LE GRAND,FRANCE,48.799689,4.706888
78140,VELIZY CEDEX,FRANCE,48.787899,2.190408
78140,VELIZY VILLACOUBLAY,FRANCE,48.787899,2.190408
78141,VELIZY VILLACOUBLAY,FRANCE,48.787899,2.190408
78140,VELIZY VILLACOUBLAY CEDEX,FRANCE,48.787899,2.190408
78140,VELIZY-VILLACOUBLAY,FRANCE,48.787899,2.190408
78457,VELIZY-VILLACOUBLAY,FRANCE,48.787899,2.190408
78480,VERNEUIL SUR SEINE,FRANCE,48.979317,1.975419
78540,VERNOUILLET,FRANCE,48.973699,1.983023
78000,VERSAILLES,FRANCE,48.801408,2.130122
78037,VERSAILLES CEDEX,FRANCE,48.801408,2.130122
95270,VIARMES,FRANCE,49.125732,2.3694829
38200,VIENNE,FRANCE,45.525587,4.874339
91270,VIGNEUX SUR SEINE,FRANCE,48.700094,2.416924
95450,VIGNY,FRANCE,49.083335,1.933924
91100,VILLABÉ,FRANCE,48.589494,2.454831
92410,VILLE D AVRAY,FRANCE,48.8270042,2.1886944
92410,VILLE D'AVRAY,FRANCE,48.8270042,2.1886944
91140,VILLEBON SUR YVETTE,FRANCE,48.6964029,2.236654
91940,VILLEBON SUR YVETTE,FRANCE,48.6964029,2.236654
94800,VILLEJUIF,FRANCE,48.792716,2.359279
91360,VILLEMOISSON SUR ORGE,FRANCE,48.659906,2.329818
93250,VILLEMOMBLE,FRANCE,48.886727,2.505069
59650,VILLENEUVE D'ASCQ,FRANCE,50.6232523,3.1442651
31800,VILLENEUVE DE RIVIERE,FRANCE,43.122341,0.664937
77174,VILLENEUVE LE COMTE,FRANCE,48.814025,2.82967
30406,VILLENEUVE LES AVIGNON CEDEX,FRANCE,43.96341,4.796959
60175,VILLENEUVE LES SABLONS,FRANCE,49.236552,2.076946
92390,VILLENEUVE-LA- GARENNE,FRANCE,48.936616,2.324789
78670,VILLENNES SUR SEINE,FRANCE,48.937191,1.997421
93420,VILLEPINTE,FRANCE,48.960226,2.542867
95380,VILLERON,FRANCE,49.057372,2.541795
93430,VILLETANEUSE,FRANCE,48.963476,2.347354
69100,VILLEURBANNE,FRANCE,45.771944,4.8901709
95400,VILLIERS LE BEL,FRANCE,49.007379,2.387981
94350,VILLIERS SUR MARNE,FRANCE,48.825787,2.546798
95400,VILLIERS-LE-BEL,FRANCE,49.007379,2.387981
78640,VILLIERS-SAINT-FRÉDÉRIC,FRANCE,48.819381,1.891563
94300,VINCENNES,FRANCE,48.847759,2.4394969
78220,VIROFLAY,FRANCE,48.79966,2.173231
91170,VIRY CHATILLON,FRANCE,48.666218,2.375902
65200,VISKER,FRANCE,43.139048,0.065719
94400,VITRY SUR SEINE,FRANCE,48.792001,2.39851
78960,VOISINS LE BRETONNEUX,FRANCE,48.7604611,2.0436886
78960,VOISINS-LE-BRETONNEUX,FRANCE,48.7604611,2.0436886
,WALTHAM  MA,ETATS-UNIS,42.3764852,-71.2356113
,WANCHAI,HONG KONG,22.276022,114.1751471
,WARSZAWA,POLOGNE,52.2296756,21.0122287
59290,WASQUEHAL,FRANCE,50.669276,3.130782
,WAVRE,BELGIQUE,50.7158956,4.6128075
,WENSHANG,CHINE,35.732798,116.489043
,WEYBRIDGE,UNITED KINGDOM,51.3716269,-0.457904
91320,WISSOUS,FRANCE,48.730843,2.3278249
,WUHAN,CHINE,30.592849,114.305539
,WUHAN,P.R.CHINA,30.592849,114.305539
,WUHAN,CHINA,30.592849,114.305539
,WUXI,CHINA,31.491169,120.31191
,WUXI,CHINE,31.491169,120.31191
,YEREVAN,ARMENIE,40.1791857,44.4991029
57970,YUTZ,FRANCE,49.357276,6.200101
,ZAGREB,CROATIE,45.8150108,15.9819189
,ZHANGJIAKOU,CHINE,40.767544,114.886335
,ZIZUR MAYOR,ESPAGNE,42.7855575,-1.6882181
,ZURICH,SUISSE,47.3768866,8.541694
